{
  "type": "FeatureCollection",
  "features": [
    {
      "type": "Feature",
      "properties": {
        "norad_id": 66549,
        "name": "SHIJIAN-28 (SJ-28)",
        "group": "last-30-days",
        "lat": 4.720465750221438,
        "lon": 23.748275597055486,
        "alt_km": 35783.72482073834,
        "timestamp": "2025-12-27T11:23:18.576607+00:00",
        "meta_object_name": "SHIJIAN-28 (SJ-28)",
        "meta_object_id": "2025-277A",
        "meta_epoch": "2025-12-25T13:29:07.948320",
        "meta_mean_motion": 1.0026485,
        "meta_eccentricity": 9.97e-05,
        "meta_inclination": 4.9871,
        "meta_ra_of_asc_node": 274.7549,
        "meta_arg_of_pericenter": 127.1328,
        "meta_mean_anomaly": 11.4336,
        "meta_ephemeris_type": 0,
        "meta_classification_type": "U",
        "meta_norad_cat_id": 66549,
        "meta_element_set_no": 999,
        "meta_rev_at_epoch": 41,
        "meta_bstar": 0,
        "meta_mean_motion_dot": -3.37e-06,
        "meta_mean_motion_ddot": 0,
        "tle_line1": "1 66549U 25277A   25359.56189755 -.00000337  00000+0  00000+0 0  9995",
        "tle_line2": "2 66549   4.9871 274.7549 0000997 127.1328  11.4336  1.00264850   417"
      },
      "geometry": {
        "type": "Point",
        "coordinates": [
          23.748275597055486,
          4.720465750221438
        ]
      }
    },
    {
      "type": "Feature",
      "properties": {
        "norad_id": 66550,
        "name": "CZ-7A R/B",
        "group": "last-30-days",
        "lat": 4.368014453539992,
        "lon": 63.57225454563026,
        "alt_km": 912.3047424956467,
        "timestamp": "2025-12-27T11:23:18.576660+00:00",
        "meta_object_name": "CZ-7A R/B",
        "meta_object_id": "2025-277B",
        "meta_epoch": "2025-12-26T04:09:27.198144",
        "meta_mean_motion": 3.54037207,
        "meta_eccentricity": 0.6428177,
        "meta_inclination": 14.3386,
        "meta_ra_of_asc_node": 261.883,
        "meta_arg_of_pericenter": 204.1589,
        "meta_mean_anomaly": 102.8537,
        "meta_ephemeris_type": 0,
        "meta_classification_type": "U",
        "meta_norad_cat_id": 66550,
        "meta_element_set_no": 999,
        "meta_rev_at_epoch": 76,
        "meta_bstar": 0.003172,
        "meta_mean_motion_dot": 0.04976202,
        "meta_mean_motion_ddot": -2.1169e-07,
        "tle_line1": "1 66550U 25277B   25360.17323146  .04976202 -21169-6  31720-2 0  9999",
        "tle_line2": "2 66550  14.3386 261.8830 6428177 204.1589 102.8537  3.54037207   761"
      },
      "geometry": {
        "type": "Point",
        "coordinates": [
          63.57225454563026,
          4.368014453539992
        ]
      }
    },
    {
      "type": "Feature",
      "properties": {
        "norad_id": 66554,
        "name": "GLOBAL-33",
        "group": "last-30-days",
        "lat": 30.121848217232184,
        "lon": 12.037301839195202,
        "alt_km": 468.30697771382074,
        "timestamp": "2025-12-27T11:23:18.576688+00:00",
        "meta_object_name": "GLOBAL-33",
        "meta_object_id": "2025-267A",
        "meta_epoch": "2025-12-26T22:39:31.202496",
        "meta_mean_motion": 15.31813416,
        "meta_eccentricity": 0.00050879,
        "meta_inclination": 42.0212,
        "meta_ra_of_asc_node": 334.9853,
        "meta_arg_of_pericenter": 190.0574,
        "meta_mean_anomaly": 170.0163,
        "meta_ephemeris_type": 0,
        "meta_classification_type": "U",
        "meta_norad_cat_id": 66554,
        "meta_element_set_no": 999,
        "meta_rev_at_epoch": 558,
        "meta_bstar": 0.00053894927,
        "meta_mean_motion_dot": 0.00016705,
        "meta_mean_motion_ddot": 0,
        "tle_line1": "1 66554U 25267A   25360.94411114  .00016705  00000+0  53895-3 0  9990",
        "tle_line2": "2 66554  42.0212 334.9853 0005087 190.0574 170.0163 15.31813416  5589"
      },
      "geometry": {
        "type": "Point",
        "coordinates": [
          12.037301839195202,
          30.121848217232184
        ]
      }
    },
    {
      "type": "Feature",
      "properties": {
        "norad_id": 66557,
        "name": "STARLINK-35699",
        "group": "last-30-days",
        "lat": -37.879388498434906,
        "lon": -88.07695083759295,
        "alt_km": 478.09257412183615,
        "timestamp": "2025-12-27T11:23:18.576702+00:00",
        "meta_object_name": "STARLINK-35699",
        "meta_object_id": "2025-268A",
        "meta_epoch": "2025-12-27T04:00:01.998720",
        "meta_mean_motion": 15.31340941,
        "meta_eccentricity": 0.0001332,
        "meta_inclination": 43.0005,
        "meta_ra_of_asc_node": 37.0787,
        "meta_arg_of_pericenter": 252.4456,
        "meta_mean_anomaly": 93.492,
        "meta_ephemeris_type": 0,
        "meta_classification_type": "U",
        "meta_norad_cat_id": 66557,
        "meta_element_set_no": 999,
        "meta_rev_at_epoch": 605,
        "meta_bstar": -0.072413,
        "meta_mean_motion_dot": -0.02022252,
        "meta_mean_motion_ddot": 0,
        "tle_line1": "1 66557U 25268A   25361.16668980 -.02022252  00000+0 -72413-1 0  9997",
        "tle_line2": "2 66557  43.0005  37.0787 0001332 252.4456  93.4920 15.31340941  6051"
      },
      "geometry": {
        "type": "Point",
        "coordinates": [
          -88.07695083759295,
          -37.879388498434906
        ]
      }
    },
    {
      "type": "Feature",
      "properties": {
        "norad_id": 66558,
        "name": "STARLINK-35695",
        "group": "last-30-days",
        "lat": -42.64537646918377,
        "lon": -63.47516112125873,
        "alt_km": 475.74967233366624,
        "timestamp": "2025-12-27T11:23:18.576715+00:00",
        "meta_object_name": "STARLINK-35695",
        "meta_object_id": "2025-268B",
        "meta_epoch": "2025-12-27T04:00:01.998720",
        "meta_mean_motion": 15.32176214,
        "meta_eccentricity": 0.0001411,
        "meta_inclination": 43.0006,
        "meta_ra_of_asc_node": 37.034,
        "meta_arg_of_pericenter": 257.7994,
        "meta_mean_anomaly": 106.5632,
        "meta_ephemeris_type": 0,
        "meta_classification_type": "U",
        "meta_norad_cat_id": 66558,
        "meta_element_set_no": 999,
        "meta_rev_at_epoch": 605,
        "meta_bstar": -0.070592,
        "meta_mean_motion_dot": -0.02023897,
        "meta_mean_motion_ddot": 0,
        "tle_line1": "1 66558U 25268B   25361.16668980 -.02023897  00000+0 -70592-1 0  9990",
        "tle_line2": "2 66558  43.0006  37.0340 0001411 257.7994 106.5632 15.32176214  6058"
      },
      "geometry": {
        "type": "Point",
        "coordinates": [
          -63.47516112125873,
          -42.64537646918377
        ]
      }
    },
    {
      "type": "Feature",
      "properties": {
        "norad_id": 66559,
        "name": "STARLINK-35419",
        "group": "last-30-days",
        "lat": 0.01430587851502665,
        "lon": 35.065983354326605,
        "alt_km": 457.7751828381015,
        "timestamp": "2025-12-27T11:23:18.576743+00:00",
        "meta_object_name": "STARLINK-35419",
        "meta_object_id": "2025-268C",
        "meta_epoch": "2025-12-27T04:00:01.998720",
        "meta_mean_motion": 15.37312401,
        "meta_eccentricity": 0.000132,
        "meta_inclination": 43.0007,
        "meta_ra_of_asc_node": 36.814,
        "meta_arg_of_pericenter": 279.3033,
        "meta_mean_anomaly": 175.8822,
        "meta_ephemeris_type": 0,
        "meta_classification_type": "U",
        "meta_norad_cat_id": 66559,
        "meta_element_set_no": 999,
        "meta_rev_at_epoch": 605,
        "meta_bstar": -0.059742,
        "meta_mean_motion_dot": -0.01987892,
        "meta_mean_motion_ddot": 0,
        "tle_line1": "1 66559U 25268C   25361.16668980 -.01987892  00000+0 -59742-1 0  9998",
        "tle_line2": "2 66559  43.0007  36.8140 0001320 279.3033 175.8822 15.37312401  6053"
      },
      "geometry": {
        "type": "Point",
        "coordinates": [
          35.065983354326605,
          0.01430587851502665
        ]
      }
    },
    {
      "type": "Feature",
      "properties": {
        "norad_id": 66560,
        "name": "STARLINK-35411",
        "group": "last-30-days",
        "lat": 7.148522397159806,
        "lon": 42.760333969787,
        "alt_km": 455.413760699721,
        "timestamp": "2025-12-27T11:23:18.576759+00:00",
        "meta_object_name": "STARLINK-35411",
        "meta_object_id": "2025-268D",
        "meta_epoch": "2025-12-27T04:00:01.998720",
        "meta_mean_motion": 15.37850416,
        "meta_eccentricity": 0.0001302,
        "meta_inclination": 42.9998,
        "meta_ra_of_asc_node": 36.7903,
        "meta_arg_of_pericenter": 279.6599,
        "meta_mean_anomaly": 185.4276,
        "meta_ephemeris_type": 0,
        "meta_classification_type": "U",
        "meta_norad_cat_id": 66560,
        "meta_element_set_no": 999,
        "meta_rev_at_epoch": 605,
        "meta_bstar": -0.059192,
        "meta_mean_motion_dot": -0.02002825,
        "meta_mean_motion_ddot": 0,
        "tle_line1": "1 66560U 25268D   25361.16668980 -.02002825  00000+0 -59192-1 0  9994",
        "tle_line2": "2 66560  42.9998  36.7903 0001302 279.6599 185.4276 15.37850416  6051"
      },
      "geometry": {
        "type": "Point",
        "coordinates": [
          42.760333969787,
          7.148522397159806
        ]
      }
    }
  ]
}